{"epoch":1784902576,"count":18312,"objects":[{"id":"48797","name":"ONEWEB-0236","type":"PAYLOAD","l1":"1 48797U 21045AG  26205.21576213 -.00000010  00000-0 -61072-4 0  9992","l2":"2 48797  87.8974 251.8271 0002080  92.6216 267.5153 13.15548725249120"},{"id":"48798","name":"ONEWEB-0248","type":"PAYLOAD","l1":"1 48798U 21045AH  26205.15236925 -.00000062  00000-0 -19874-3 0  9998","l2":"2 48798  87.8984 251.8269 0002561 100.9732 259.1686 13.15549554249274"},{"id":"48799","name":"ONEWEB-0225","type":"PAYLOAD","l1":"1 48799U 21045AJ  26205.17456789 -.00000022  00000-0 -92055-4 0  9992","l2":"2 48799  87.8971 251.8290 0002417 108.1595 251.9799 13.15548377249280"},{"id":"48800","name":"ONEWEB-0215","type":"PAYLOAD","l1":"1 48800U 21045AK  26205.14444382  .00000026  00000-0  35652-4 0  9990","l2":"2 48800  87.8988 251.8198 0002603 107.2032 252.9384 13.15549951249157"},{"id":"48801","name":"ONEWEB-0216","type":"PAYLOAD","l1":"1 48801U 21045AL  26205.15396645 -.00000117  00000-0 -34483-3 0  9993","l2":"2 48801  87.8981 251.8312 0001988  96.2560 263.8797 13.15548457249167"},{"id":"48802","name":"ONEWEB-0239","type":"PAYLOAD","l1":"1 48802U 21045AM  26205.15872428 -.00000127  00000-0 -37182-3 0  9992","l2":"2 48802  87.8975 251.8341 0002841 103.8460 256.2987 13.15547981249209"},{"id":"48967","name":"ONEWEB-0249","type":"PAYLOAD","l1":"1 48967U 21060A   26205.29139562  .00000097  00000-0  22055-3 0  9998","l2":"2 48967  87.9081 221.4073 0002190  92.6496 267.4885 13.16593281244498"},{"id":"48968","name":"ONEWEB-0250","type":"PAYLOAD","l1":"1 48968U 21060B   26205.13577415  .00000065  00000-0  11716-3 0  9992","l2":"2 48968  87.9081 219.0742 0002912  77.5682 282.5780 13.25835910245116"},{"id":"48970","name":"ONEWEB-0252","type":"PAYLOAD","l1":"1 48970U 21060D   26205.24628700 -.00000905  00000-0 -24012-2 0  9998","l2":"2 48970  87.9085 221.4102 0001929 100.0839 260.0510 13.16587281244535"},{"id":"48971","name":"ONEWEB-0253","type":"PAYLOAD","l1":"1 48971U 21060E   26205.08319562  .00000043  00000-0  79891-4 0  9992","l2":"2 48971  87.9076 221.4461 0002195  91.0433 269.0949 13.16595776244442"},{"id":"48972","name":"ONEWEB-0254","type":"PAYLOAD","l1":"1 48972U 21060F   26205.09271026 -.00000012  00000-0 -66017-4 0  9990","l2":"2 48972  87.9079 221.4426 0002373  95.1843 264.9559 13.16594011244447"},{"id":"48973","name":"ONEWEB-0255","type":"PAYLOAD","l1":"1 48973U 21060G   26205.05471077  .00000038  00000-0  65618-4 0  9997","l2":"2 48973  87.9081 221.4564 0002223  95.1435 264.9950 13.16594838244515"},{"id":"48974","name":"ONEWEB-0256","type":"PAYLOAD","l1":"1 48974U 21060H   26205.08083771  .00000021  00000-0  20031-4 0  9993","l2":"2 48974  87.9071 221.4533 0001938  93.3969 266.7383 13.16595194244487"},{"id":"48975","name":"ONEWEB-0257","type":"PAYLOAD","l1":"1 48975U 21060J   26205.11329305  .00000075  00000-0  16246-3 0  9995","l2":"2 48975  87.9075 221.4357 0002060  95.9289 264.2077 13.16594326244441"},{"id":"48976","name":"ONEWEB-0258","type":"PAYLOAD","l1":"1 48976U 21060K   26205.11485849  .00000106  00000-0  24347-3 0  9998","l2":"2 48976  87.9074 221.4483 0002079  90.2599 269.8770 13.16592775244451"},{"id":"48977","name":"ONEWEB-0259","type":"PAYLOAD","l1":"1 48977U 21060L   26205.10854267  .00000060  00000-0  12252-3 0  9993","l2":"2 48977  87.9076 221.4476 0002240  92.3440 267.7947 13.16594098244480"},{"id":"48978","name":"ONEWEB-0260","type":"PAYLOAD","l1":"1 48978U 21060M   26205.09981826  .00000138  00000-0  32665-3 0  9990","l2":"2 48978  87.9067 221.4491 0001727  97.3117 262.8210 13.16592704244462"},{"id":"48979","name":"ONEWEB-0261","type":"PAYLOAD","l1":"1 48979U 21060N   26205.06975821 -.00000029  00000-0 -10915-3 0  9991","l2":"2 48979  87.9075 221.4561 0002219 100.5741 259.5640 13.16594180244513"},{"id":"48980","name":"ONEWEB-0262","type":"PAYLOAD","l1":"1 48980U 21060P   26205.12594730 -.00014681  00000-0 -38456-1 0  9993","l2":"2 48980  87.9072 221.4316 0001858  80.1343 279.9998 13.16669795244482"},{"id":"48981","name":"ONEWEB-0263","type":"PAYLOAD","l1":"1 48981U 21060Q   26205.08162501 -.00000032  00000-0 -11734-3 0  9993","l2":"2 48981  87.9078 221.4526 0002297  98.8657 261.2734 13.16594154244448"},{"id":"48982","name":"ONEWEB-0264","type":"PAYLOAD","l1":"1 48982U 21060R   26205.27082295  .00000108  00000-0  24861-3 0  9993","l2":"2 48982  87.9074 221.4167 0002021  97.7147 262.4213 13.16592816244474"},{"id":"48984","name":"ONEWEB-0266","type":"PAYLOAD","l1":"1 48984U 21060T   26205.06418997 -.00000201  00000-0 -55865-3 0  9998","l2":"2 48984  87.9078 221.4490 0002083  89.2107 270.9262 13.16594257244434"},{"id":"48985","name":"ONEWEB-0267","type":"PAYLOAD","l1":"1 48985U 21060U   26205.30328327 -.00000034  00000-0 -12239-3 0  9995","l2":"2 48985  87.9082 221.3991 0002113  97.9551 262.1820 13.16594368244478"},{"id":"48986","name":"ONEWEB-0268","type":"PAYLOAD","l1":"1 48986U 21060V   26205.04361352  .00000102  00000-0  23239-3 0  9998","l2":"2 48986  87.9071 221.4598 0001917  91.7251 268.4099 13.16593623244707"},{"id":"48987","name":"ONEWEB-0269","type":"PAYLOAD","l1":"1 48987U 21060W   26205.10062416  .00000170  00000-0  41104-3 0  9991","l2":"2 48987  87.9067 221.4482 0001874  88.9264 271.2082 13.16594450244487"},{"id":"48988","name":"ONEWEB-0270","type":"PAYLOAD","l1":"1 48988U 21060X   26205.11802867  .00000035  00000-0  58028-4 0  9999","l2":"2 48988  87.9085 221.4474 0003067 107.4504 252.6963 13.16592994244526"},{"id":"48989","name":"ONEWEB-0271","type":"PAYLOAD","l1":"1 48989U 21060Y   26205.10537585  .00000105  00000-0  24210-3 0  9994","l2":"2 48989  87.9076 221.4388 0002202  97.7837 262.3544 13.16594341244522"},{"id":"48990","name":"ONEWEB-0272","type":"PAYLOAD","l1":"1 48990U 21060Z   26205.12752382  .00000031  00000-0  47020-4 0  9995","l2":"2 48990  87.9070 221.4448 0001855  98.8417 261.2924 13.16596468244470"},{"id":"48991","name":"ONEWEB-0273","type":"PAYLOAD","l1":"1 48991U 21060AA  26205.30167911 -.00000004  00000-0 -43860-4 0  9994","l2":"2 48991  87.9073 221.4109 0002177  94.0526 266.0854 13.16594248244474"},{"id":"48992","name":"ONEWEB-0274","type":"PAYLOAD","l1":"1 48992U 21060AB  26205.09901852  .00000073  00000-0  15624-3 0  9991","l2":"2 48992  87.9074 221.4520 0002131 104.0056 256.1312 13.16595755244487"}]}