OBJECT_NAME,OBJECT_ID,EPOCH,MEAN_MOTION,ECCENTRICITY,INCLINATION,RA_OF_ASC_NODE,ARG_OF_PERICENTER,MEAN_ANOMALY,EPHEMERIS_TYPE,CLASSIFICATION_TYPE,NORAD_CAT_ID,ELEMENT_SET_NO,REV_AT_EPOCH,BSTAR,MEAN_MOTION_DOT,MEAN_MOTION_DDOT
ONEWEB-0236,2021-045AG,2026-07-24T05:10:41.848032,13.15548725,.00020801,87.8974,251.8271,92.6216,267.5153,0,U,48797,999,24912,-.61071723E-4,-.1E-6,0
ONEWEB-0248,2021-045AH,2026-07-24T03:39:24.703200,13.15549554,.00025607,87.8984,251.8269,100.9732,259.1686,0,U,48798,999,24927,-.19873502E-3,-.62E-6,0
ONEWEB-0225,2021-045AJ,2026-07-24T04:11:22.665696,13.15548377,.00024174,87.8971,251.8290,108.1595,251.9799,0,U,48799,999,24928,-.92054963E-4,-.22E-6,0
ONEWEB-0215,2021-045AK,2026-07-24T03:27:59.946048,13.15549951,.00026029,87.8988,251.8198,107.2032,252.9384,0,U,48800,999,24915,.35651638E-4,.26E-6,0
ONEWEB-0216,2021-045AL,2026-07-24T03:41:42.701280,13.15548457,.00019884,87.8981,251.8312,96.2560,263.8797,0,U,48801,999,24916,-.34482745E-3,-.117E-5,0
ONEWEB-0239,2021-045AM,2026-07-24T03:48:33.777792,13.15547981,.00028406,87.8975,251.8341,103.8460,256.2987,0,U,48802,999,24920,-.37182104E-3,-.127E-5,0
ONEWEB-0249,2021-060A,2026-07-24T06:59:36.581568,13.16593281,.00021902,87.9081,221.4073,92.6496,267.4885,0,U,48967,999,24449,.22054594E-3,.97E-6,0
ONEWEB-0250,2021-060B,2026-07-24T03:15:30.886560,13.25835910,.0002912,87.9081,219.0742,77.5682,282.5780,0,U,48968,999,24511,.11716417E-3,.65E-6,0
ONEWEB-0252,2021-060D,2026-07-24T05:54:39.196800,13.16587281,.00019288,87.9085,221.4102,100.0839,260.0510,0,U,48970,999,24453,-.24012308E-2,-.905E-5,0
ONEWEB-0253,2021-060E,2026-07-24T01:59:48.101568,13.16595776,.00021946,87.9076,221.4461,91.0433,269.0949,0,U,48971,999,24444,.79890771E-4,.43E-6,0
ONEWEB-0254,2021-060F,2026-07-24T02:13:30.166464,13.16594011,.00023727,87.9079,221.4426,95.1843,264.9559,0,U,48972,999,24444,-.66016774E-4,-.12E-6,0
ONEWEB-0255,2021-060G,2026-07-24T01:18:47.010528,13.16594838,.0002223,87.9081,221.4564,95.1435,264.9950,0,U,48973,999,24451,.65618254E-4,.38E-6,0
ONEWEB-0256,2021-060H,2026-07-24T01:56:24.378144,13.16595194,.00019379,87.9071,221.4533,93.3969,266.7383,0,U,48974,999,24448,.2003057E-4,.21E-6,0
ONEWEB-0257,2021-060J,2026-07-24T02:43:08.519520,13.16594326,.00020605,87.9075,221.4357,95.9289,264.2077,0,U,48975,999,24444,.16246021E-3,.75E-6,0
ONEWEB-0258,2021-060K,2026-07-24T02:45:23.773536,13.16592775,.00020791,87.9074,221.4483,90.2599,269.8770,0,U,48976,999,24445,.24346865E-3,.106E-5,0
ONEWEB-0259,2021-060L,2026-07-24T02:36:18.086688,13.16594098,.00022399,87.9076,221.4476,92.3440,267.7947,0,U,48977,999,24448,.12251794E-3,.6E-6,0
ONEWEB-0260,2021-060M,2026-07-24T02:23:44.297664,13.16592704,.00017271,87.9067,221.4491,97.3117,262.8210,0,U,48978,999,24446,.32664577E-3,.138E-5,0
ONEWEB-0261,2021-060N,2026-07-24T01:40:27.109344,13.16594180,.00022195,87.9075,221.4561,100.5741,259.5640,0,U,48979,999,24451,-.10915449E-3,-.29E-6,0
ONEWEB-0262,2021-060P,2026-07-24T03:01:21.846720,13.16669795,.00018582,87.9072,221.4316,80.1343,279.9998,0,U,48980,999,24448,-.38455557E-1,-.14681E-3,0
ONEWEB-0263,2021-060Q,2026-07-24T01:57:32.400864,13.16594154,.00022972,87.9078,221.4526,98.8657,261.2734,0,U,48981,999,24444,-.117336E-3,-.32E-6,0
ONEWEB-0264,2021-060R,2026-07-24T06:29:59.102880,13.16592816,.00020213,87.9074,221.4167,97.7147,262.4213,0,U,48982,999,24447,.24861452E-3,.108E-5,0
ONEWEB-0266,2021-060T,2026-07-24T01:32:26.013408,13.16594257,.0002083,87.9078,221.4490,89.2107,270.9262,0,U,48984,999,24443,-.5586472E-3,-.201E-5,0
ONEWEB-0267,2021-060U,2026-07-24T07:16:43.674528,13.16594368,.00021131,87.9082,221.3991,97.9551,262.1820,0,U,48985,999,24447,-.12239428E-3,-.34E-6,0
ONEWEB-0268,2021-060V,2026-07-24T01:02:48.208128,13.16593623,.00019175,87.9071,221.4598,91.7251,268.4099,0,U,48986,999,24470,.23238615E-3,.102E-5,0
ONEWEB-0269,2021-060W,2026-07-24T02:24:53.927424,13.16594450,.00018741,87.9067,221.4482,88.9264,271.2082,0,U,48987,999,24448,.41103878E-3,.17E-5,0
ONEWEB-0270,2021-060X,2026-07-24T02:49:57.677088,13.16592994,.0003067,87.9085,221.4474,107.4504,252.6963,0,U,48988,999,24452,.58028284E-4,.35E-6,0
ONEWEB-0271,2021-060Y,2026-07-24T02:31:44.473440,13.16594341,.0002202,87.9076,221.4388,97.7837,262.3544,0,U,48989,999,24452,.24210352E-3,.105E-5,0
ONEWEB-0272,2021-060Z,2026-07-24T03:03:38.058048,13.16596468,.00018551,87.9070,221.4448,98.8417,261.2924,0,U,48990,999,24447,.47019539E-4,.31E-6,0
ONEWEB-0273,2021-060AA,2026-07-24T07:14:25.075104,13.16594248,.00021767,87.9073,221.4109,94.0526,266.0854,0,U,48991,999,24447,-.43860029E-4,-.4E-7,0
ONEWEB-0274,2021-060AB,2026-07-24T02:22:35.200128,13.16595755,.00021313,87.9074,221.4520,104.0056,256.1312,0,U,48992,999,24448,.15623898E-3,.73E-6,0
